NIMIQ 4                 
1 33373U 08044A   26169.59348904  .00000000  00000+0  00000+0 0  9999
2 33373   0.0370  51.4400 0002086  35.8357 311.2464  1.00267388 64996
GALAXY 19 (G-19)        
1 33376U 08045A   26169.66183103 -.00000145  00000+0  00000+0 0  9990
2 33376   0.0324 263.5653 0002518 188.5280 316.0666  1.00271177 64915
ASTRA 1M                
1 33436U 08057A   26169.61359579  .00000114  00000+0  00000+0 0  9992
2 33436   0.3011  82.4774 0004780  25.2693  39.3592  1.00272403 45755
EUTELSAT HOTBIRD 13C    
1 33459U 08065A   26169.52849991 -.00000290  00000+0  00000+0 0  9994
2 33459   2.9546  79.1758 0003363   7.6248 319.9269  1.00270426 47351
EXPRESS-AM44            
1 33595U 09007A   26169.60752910 -.00000097  00000+0  00000+0 0  9990
2 33595   3.4677  78.3734 0003803   1.8119  34.3560  1.00270952 52307
NSS-9                   
1 33749U 09008A   26169.64597095  .00000065  00000+0  00000+0 0  9991
2 33749   1.2664  82.6421 0002009 346.1673 253.6806  1.00270689 63531
TELSTAR 11N             
1 34111U 09009A   26169.38837117 -.00000257  00000+0  00000+0 0  9993
2 34111   0.0235  64.8262 0002223  24.8994 279.1484  1.00270178 46253
WGS F2 (USA 204)        
1 34713U 09017A   26169.62109462  .00000061  00000+0  00000+0 0  9994
2 34713   0.0177   9.8632 0000297 273.2198 264.8727  1.00273050 45635
SES-7 (PROTOSTAR 2)     
1 34941U 09027A   26169.61894983 -.00000350  00000+0  00000+0 0  9998
2 34941   0.0418  68.6584 0000435 191.5237 337.7400  1.00259987 62646
MEASAT-3A               
1 35362U 09032A   26169.62197516 -.00000117  00000+0  00000+0 0  9992
2 35362   0.0217 359.3171 0002911  81.0030 210.4589  1.00271777  8048
GOES 14                 
1 35491U 09033A   26169.71458669 -.00000304  00000+0  00000+0 0  9993
2 35491   1.6949  83.0245 0001831  12.4134 209.7079  1.00110439  6608
FM-5                    
1 35493U 09034A   26169.52139321 -.00000207  00000+0  00000+0 0  9998
2 35493   0.0186 296.2063 0000622  11.6391  60.4535  1.00277833 46655
TERRESTAR-1             
1 35496U 09035A   26169.65879770 -.00000065  00000+0  00000+0 0  9997
2 35496   5.1763  48.8007 0002626  31.4792 312.7675  1.00272073 62146
ASIASAT 5               
1 35696U 09042A   26169.62958472  .00000000  00000+0  00000+0 0  9999
2 35696   0.0284  47.1681 0001569  39.0648 147.8466  1.00266539 61727
JCSAT-12 (JCSAT-RA)     
1 35755U 09044A   26169.55182220 -.00000334  00000+0  00000+0 0  9990
2 35755   0.0086  14.9883 0000258 289.1618 293.3350  1.00270600 61620
OPTUS D3                
1 35756U 09044B   26169.64068426 -.00000152  00000+0  00000+0 0  9990
2 35756   0.8729 268.9316 0002743 180.3950 204.3323  1.00270123 61584
NIMIQ 5                 
1 35873U 09050A   26169.63845469 -.00000263  00000+0  00000+0 0  9999
2 35873   0.0072   8.3041 0002739  77.0710 338.6364  1.00269842 61356
AMAZONAS 2              
1 35942U 09054A   26169.59548236 -.00000266  00000+0  00000+0 0  9990
2 35942   1.8202  83.0304 0003130   5.6337 320.5408  1.00272878 61191
COMSATBW-1              
1 35943U 09054B   26169.47959942  .00000017  00000+0  00000+0 0  9991
2 35943   0.0550 162.5729 0002674 293.6151  46.2520  1.00276711 61320
NSS-12                  
1 36032U 09058A   26169.62100794  .00000066  00000+0  00000+0 0  9999
2 36032   0.0301 309.4902 0004884 107.8532 130.0665  1.00270448 60932
THOR 6                  
1 36033U 09058B   26169.60952243 -.00000016  00000+0  00000+0 0  9998
2 36033   0.0212  94.2556 0001600 348.5226  42.6516  1.00271328 61027
INTELSAT 14 (IS-14)     
1 36097U 09064A   26169.45819266 -.00000280  00000+0  00000+0 0  9998
2 36097   0.0119 310.1717 0002296 135.4044 301.0751  1.00272000 60610
EUTELSAT 36B            
1 36101U 09065A   26169.54843331  .00000106  00000+0  00000+0 0  9991
2 36101   0.4953  81.1341 0005448   4.1786  69.4173  1.00268624 60723
INTELSAT 15 (IS-15)     
1 36106U 09067A   26169.62655139 -.00000191  00000+0  00000+0 0  9999
2 36106   0.0151 336.7829 0002115 110.5059 130.2753  1.00272210 41240
WGS F3 (USA 211)        
1 36108U 09068A   26169.51272648  .00000058  00000+0  00000+0 0  9991
2 36108   0.3252  85.7732 0000065 279.9238 315.6369  1.00272034 46603
DIRECTV 12              
1 36131U 09075A   26169.66070436 -.00000110  00000+0  00000+0 0  9992
2 36131   0.0434 170.9001 0000385 299.0990 292.0273  1.00272181 46567
BEIDOU-2 G1             
1 36287U 10001A   26169.68054953 -.00000288  00000+0  00000+0 0  9999
2 36287   4.2972  60.4043 0002219 296.1030 295.8676  1.00269716 60184
SDO                     
1 36395U 10005A   26168.41002763 -.00000096  00000+0  00000+0 0  9992
2 36395  34.6527  86.3378 0001734  44.0102 180.8312  1.00269958 60061
INTELSAT 16 (IS-16)     
1 36397U 10006A   26169.52329987 -.00000251  00000+0  00000+0 0  9991
2 36397   0.0106 326.8305 0001928 134.2807 277.8288  1.00272434 59660
EWS-G2 (GOES 15)        
1 36411U 10008A   26169.62222130  .00000013  00000+0  00000+0 0  9998
2 36411   1.2824  82.8216 0004826  42.0801  69.6456  1.00266285 59657
ECHOSTAR 14             
1 36499U 10010A   26169.65749769 -.00000006  00000+0  00000+0 0  9995
2 36499   0.0489  84.8839 0002364  15.9754 283.8424  1.00269896 46563
SES-1                   
1 36516U 10016A   26169.66105103 -.00000121  00000+0  00000+0 0  9998
2 36516   0.0316 297.5153 0002623 146.0025 320.3535  1.00270925 59041
